{"type": "FeatureCollection", "features": [ {"type": "Feature", "properties": {"norad_id": 37089, "name": "COSMOS 2251 DEB", "group": "cosmos-2251-debris", "lat": 63.092585121477164, "lon": -88.56295310659969, "alt_km": 743.2555043470693, "timestamp": "2025-12-23T07:45:09.802571+00:00", "meta": {"OBJECT_NAME": "COSMOS 2251 DEB", "OBJECT_ID": "1993-036BFK", "EPOCH": "2025-12-21T15:34:23.731392", "MEAN_MOTION": 14.53121083, "ECCENTRICITY": 0.0134841, "INCLINATION": 74.0377, "RA_OF_ASC_NODE": 128.9285, "ARG_OF_PERICENTER": 227.2834, "MEAN_ANOMALY": 131.6914, "EPHEMERIS_TYPE": 0, "CLASSIFICATION_TYPE": "U", "NORAD_CAT_ID": 37089, "ELEMENT_SET_NO": 999, "REV_AT_EPOCH": 66239, "BSTAR": 0.0022471011, "MEAN_MOTION_DOT": 0.00010467, "MEAN_MOTION_DDOT": 0}, "tle": {"line1": "1 37089U 93036BFK 25355.64888578  .00010467  00000+0  22471-2 0  9997", "line2": "2 37089  74.0377 128.9285 0134841 227.2834 131.6914 14.53121083662390"}}, "geometry": {"type": "Point", "coordinates": [-88.56295310659969, 63.092585121477164]}}, {"type": "Feature", "properties": {"norad_id": 37094, "name": "COSMOS 2251 DEB", "group": "cosmos-2251-debris", "lat": 19.703620742047928, "lon": 107.62268525270845, "alt_km": 721.8921598246161, "timestamp": "2025-12-23T07:45:09.802581+00:00", "meta": {"OBJECT_NAME": "COSMOS 2251 DEB", "OBJECT_ID": "1993-036BFQ", "EPOCH": "2025-12-10T15:45:11.030688", "MEAN_MOTION": 14.37808892, "ECCENTRICITY": 0.0084108, "INCLINATION": 74.1091, "RA_OF_ASC_NODE": 124.9809, "ARG_OF_PERICENTER": 91.4784, "MEAN_ANOMALY": 269.6007, "EPHEMERIS_TYPE": 0, "CLASSIFICATION_TYPE": "U", "NORAD_CAT_ID": 37094, "ELEMENT_SET_NO": 999, "REV_AT_EPOCH": 84476, "BSTAR": 0.0015212, "MEAN_MOTION_DOT": 4.753e-05, "MEAN_MOTION_DDOT": 0}, "tle": {"line1": "1 37094U 93036BFQ 25344.65637767  .00004753  00000+0  15212-2 0  9990", "line2": "2 37094  74.1091 124.9809 0084108  91.4784 269.6007 14.37808892844763"}}, "geometry": {"type": "Point", "coordinates": [107.62268525270845, 19.703620742047928]}}, {"type": "Feature", "properties": {"norad_id": 37095, "name": "COSMOS 2251 DEB", "group": "cosmos-2251-debris", "lat": 69.6622098246169, "lon": -137.28601299388563, "alt_km": 995.4887280930916, "timestamp": "2025-12-23T07:45:09.802590+00:00", "meta": {"OBJECT_NAME": "COSMOS 2251 DEB", "OBJECT_ID": "1993-036BFR", "EPOCH": "2025-12-20T05:48:30.438144", "MEAN_MOTION": 14.03423265, "ECCENTRICITY": 0.01937256, "INCLINATION": 73.8447, "RA_OF_ASC_NODE": 176.6944, "ARG_OF_PERICENTER": 233.1449, "MEAN_ANOMALY": 125.1788, "EPHEMERIS_TYPE": 0, "CLASSIFICATION_TYPE": "U", "NORAD_CAT_ID": 37095, "ELEMENT_SET_NO": 999, "REV_AT_EPOCH": 62741, "BSTAR": 0.00075143733, "MEAN_MOTION_DOT": 1.362e-05, "MEAN_MOTION_DDOT": 0}, "tle": {"line1": "1 37095U 93036BFR 25354.24201896  .00001362  00000+0  75144-3 0  9991", "line2": "2 37095  73.8447 176.6944 0193725 233.1449 125.1788 14.03423265627411"}}, "geometry": {"type": "Point", "coordinates": [-137.28601299388563, 69.6622098246169]}}, {"type": "Feature", "properties": {"norad_id": 37108, "name": "COSMOS 2251 DEB", "group": "cosmos-2251-debris", "lat": 52.25704210779699, "lon": -140.71916910222416, "alt_km": 685.3350020240259, "timestamp": "2025-12-23T07:45:09.802601+00:00", "meta": {"OBJECT_NAME": "COSMOS 2251 DEB", "OBJECT_ID": "1993-036BGE", "EPOCH": "2025-12-22T12:51:21.099168", "MEAN_MOTION": 14.41369785, "ECCENTRICITY": 0.0090347, "INCLINATION": 74.0439, "RA_OF_ASC_NODE": 62.4288, "ARG_OF_PERICENTER": 136.6828, "MEAN_ANOMALY": 224.1478, "EPHEMERIS_TYPE": 0, "CLASSIFICATION_TYPE": "U", "NORAD_CAT_ID": 37108, "ELEMENT_SET_NO": 999, "REV_AT_EPOCH": 85648, "BSTAR": 0.00098888714, "MEAN_MOTION_DOT": 3.337e-05, "MEAN_MOTION_DDOT": 0}, "tle": {"line1": "1 37108U 93036BGE 25356.53566087  .00003337  00000+0  98889-3 0  9991", "line2": "2 37108  74.0439  62.4288 0090347 136.6828 224.1478 14.41369785856482"}}, "geometry": {"type": "Point", "coordinates": [-140.71916910222416, 52.25704210779699]}}, {"type": "Feature", "properties": {"norad_id": 37126, "name": "COSMOS 2251 DEB", "group": "cosmos-2251-debris", "lat": 27.731372436286833, "lon": 145.09519965499268, "alt_km": 604.0936608195825, "timestamp": "2025-12-23T07:45:09.802611+00:00", "meta": {"OBJECT_NAME": "COSMOS 2251 DEB", "OBJECT_ID": "1993-036BGY", "EPOCH": "2025-12-22T16:23:31.818624", "MEAN_MOTION": 14.73102933, "ECCENTRICITY": 0.0122717, "INCLINATION": 73.9534, "RA_OF_ASC_NODE": 335.0511, "ARG_OF_PERICENTER": 211.0565, "MEAN_ANOMALY": 148.3315, "EPHEMERIS_TYPE": 0, "CLASSIFICATION_TYPE": "U", "NORAD_CAT_ID": 37126, "ELEMENT_SET_NO": 999, "REV_AT_EPOCH": 8245, "BSTAR": 0.0001993635, "MEAN_MOTION_DOT": 1.408e-05, "MEAN_MOTION_DDOT": 0}, "tle": {"line1": "1 37126U 93036BGY 25356.68300716  .00001408  00000+0  19936-3 0  9995", "line2": "2 37126  73.9534 335.0511 0122717 211.0565 148.3315 14.73102933 82457"}}, "geometry": {"type": "Point", "coordinates": [145.09519965499268, 27.731372436286833]}}, {"type": "Feature", "properties": {"norad_id": 37132, "name": "COSMOS 2251 DEB", "group": "cosmos-2251-debris", "lat": 27.35423119891004, "lon": -138.24024561736937, "alt_km": 608.1134597893188, "timestamp": "2025-12-23T07:45:09.802620+00:00", "meta": {"OBJECT_NAME": "COSMOS 2251 DEB", "OBJECT_ID": "1993-036BHE", "EPOCH": "2025-12-21T08:30:46.700352", "MEAN_MOTION": 14.77932958, "ECCENTRICITY": 0.00403307, "INCLINATION": 74.0023, "RA_OF_ASC_NODE": 217.0951, "ARG_OF_PERICENTER": 11.0309, "MEAN_ANOMALY": 349.1741, "EPHEMERIS_TYPE": 0, "CLASSIFICATION_TYPE": "U", "NORAD_CAT_ID": 37132, "ELEMENT_SET_NO": 999, "REV_AT_EPOCH": 62543, "BSTAR": 0.0006420237, "MEAN_MOTION_DOT": 4.657e-05, "MEAN_MOTION_DDOT": 0}, "tle": {"line1": "1 37132U 93036BHE 25355.35470718  .00004657  00000+0  64202-3 0  9990", "line2": "2 37132  74.0023 217.0951 0040330  11.0309 349.1741 14.77932958625437"}}, "geometry": {"type": "Point", "coordinates": [-138.24024561736937, 27.35423119891004]}}, {"type": "Feature", "properties": {"norad_id": 37270, "name": "COSMOS 2251 DEB", "group": "cosmos-2251-debris", "lat": 15.006343937492554, "lon": -36.94516389152843, "alt_km": 829.6066768505807, "timestamp": "2025-12-23T07:45:09.802630+00:00", "meta": {"OBJECT_NAME": "COSMOS 2251 DEB", "OBJECT_ID": "1993-036BHJ", "EPOCH": "2025-12-12T22:45:06.098400", "MEAN_MOTION": 13.59808663, "ECCENTRICITY": 0.03985351, "INCLINATION": 73.9378, "RA_OF_ASC_NODE": 335.5481, "ARG_OF_PERICENTER": 347.3958, "MEAN_ANOMALY": 11.7404, "EPHEMERIS_TYPE": 0, "CLASSIFICATION_TYPE": "U", "NORAD_CAT_ID": 37270, "ELEMENT_SET_NO": 999, "REV_AT_EPOCH": 77072, "BSTAR": 0.0064936549, "MEAN_MOTION_DOT": 8.148e-05, "MEAN_MOTION_DDOT": 0}, "tle": {"line1": "1 37270U 93036BHJ 25346.94798725  .00008148  00000+0  64937-2 0  9992", "line2": "2 37270  73.9378 335.5481 0398535 347.3958  11.7404 13.59808663770728"}}, "geometry": {"type": "Point", "coordinates": [-36.94516389152843, 15.006343937492554]}}, {"type": "Feature", "properties": {"norad_id": 37278, "name": "COSMOS 2251 DEB", "group": "cosmos-2251-debris", "lat": -20.561856599258515, "lon": -36.06761662903611, "alt_km": 1060.3433224338578, "timestamp": "2025-12-23T07:45:09.802641+00:00", "meta": {"OBJECT_NAME": "COSMOS 2251 DEB", "OBJECT_ID": "1993-036BHS", "EPOCH": "2025-12-22T06:43:10.079328", "MEAN_MOTION": 14.15136552, "ECCENTRICITY": 0.02988964, "INCLINATION": 73.7862, "RA_OF_ASC_NODE": 332.08, "ARG_OF_PERICENTER": 152.8639, "MEAN_ANOMALY": 274.4968, "EPHEMERIS_TYPE": 0, "CLASSIFICATION_TYPE": "U", "NORAD_CAT_ID": 37278, "ELEMENT_SET_NO": 999, "REV_AT_EPOCH": 63964, "BSTAR": 0.0007998951, "MEAN_MOTION_DOT": 2.366e-05, "MEAN_MOTION_DDOT": 0}, "tle": {"line1": "1 37278U 93036BHS 25356.27997777  .00002366  00000+0  79990-3 0  9997", "line2": "2 37278  73.7862 332.0800 0298896 152.8639 274.4968 14.15136552639645"}}, "geometry": {"type": "Point", "coordinates": [-36.06761662903611, -20.561856599258515]}}, {"type": "Feature", "properties": {"norad_id": 37280, "name": "COSMOS 2251 DEB", "group": "cosmos-2251-debris", "lat": 73.65840566733546, "lon": 115.73687240695214, "alt_km": 799.4682556622038, "timestamp": "2025-12-23T07:45:09.802650+00:00", "meta": {"OBJECT_NAME": "COSMOS 2251 DEB", "OBJECT_ID": "1993-036BHU", "EPOCH": "2025-12-22T09:21:04.007808", "MEAN_MOTION": 14.19363695, "ECCENTRICITY": 0.0130066, "INCLINATION": 74.0303, "RA_OF_ASC_NODE": 39.8171, "ARG_OF_PERICENTER": 166.444, "MEAN_ANOMALY": 194.0254, "EPHEMERIS_TYPE": 0, "CLASSIFICATION_TYPE": "U", "NORAD_CAT_ID": 37280, "ELEMENT_SET_NO": 999, "REV_AT_EPOCH": 57460, "BSTAR": 0.0011560526, "MEAN_MOTION_DOT": 2.619e-05, "MEAN_MOTION_DDOT": 0}, "tle": {"line1": "1 37280U 93036BHU 25356.38962972  .00002619  00000+0  11561-2 0  9991", "line2": "2 37280  74.0303  39.8171 0130066 166.4440 194.0254 14.19363695574603"}}, "geometry": {"type": "Point", "coordinates": [115.73687240695214, 73.65840566733546]}}, {"type": "Feature", "properties": {"norad_id": 37284, "name": "COSMOS 2251 DEB", "group": "cosmos-2251-debris", "lat": -13.819659137205823, "lon": -37.96131292477034, "alt_km": 858.5211433317463, "timestamp": "2025-12-23T07:45:09.802660+00:00", "meta": {"OBJECT_NAME": "COSMOS 2251 DEB", "OBJECT_ID": "1993-036BHY", "EPOCH": "2025-12-10T18:04:20.469216", "MEAN_MOTION": 14.12686618, "ECCENTRICITY": 0.01605026, "INCLINATION": 74.0123, "RA_OF_ASC_NODE": 160.2425, "ARG_OF_PERICENTER": 312.4867, "MEAN_ANOMALY": 59.8736, "EPHEMERIS_TYPE": 0, "CLASSIFICATION_TYPE": "U", "NORAD_CAT_ID": 37284, "ELEMENT_SET_NO": 999, "REV_AT_EPOCH": 59147, "BSTAR": 0.001592138, "MEAN_MOTION_DOT": 3.31e-05, "MEAN_MOTION_DDOT": 0}, "tle": {"line1": "1 37284U 93036BHY 25344.75301469  .00003310  00000+0  15921-2 0  9994", "line2": "2 37284  74.0123 160.2425 0160502 312.4867  59.8736 14.12686618591475"}}, "geometry": {"type": "Point", "coordinates": [-37.96131292477034, -13.819659137205823]}}]}